[Satellite]
VERSION=1.1
NAME=STARLINK-1261
NICKNAME=STARLINK-1261
TLE1=1 45571U 20025AS  20143.58334491 -.00011162  00000-0 -11636-3 0  9991
TLE2=2 45571  52.9996 252.3000 0001142  89.1735   2.5829 15.62725628  5383
STATUS=0
